{"spkid": "54134940", "covariance": {"epoch": "2459878.5", "elements": [{"sigma": 2.87877139911694e-08, "name": "e", "units": null, "value": ".2828304431175762", "title": "eccentricity", "label": "e"}, {"label": "q", "units": "au", "title": "perihelion distance", "value": ".9465513911412323", "name": "q", "sigma": 3.49964440973667e-08}, {"units": "TDB", "value": "2459946.473883711356", "title": "time of perihelion passage", "name": "tp", "sigma": 1.71951812142248e-05, "label": "tp"}, {"label": "node", "name": "om", "sigma": 3.32986057693402e-05, "title": "longitude of the ascending node", "value": "35.21432608357444", "units": "deg"}, {"label": "peri", "sigma": 3.91403816164526e-05, "name": "w", "units": "deg", "title": "argument of perihelion", "value": "244.1299962815187"}, {"label": "i", "units": "deg", "title": "inclination", "value": "2.665135796326261", "sigma": 3.13003099815599e-06, "name": "i"}], "data": [["8.28732476837373E-16", "-1.006445279139209E-15", "3.548075056079817E-13", "-1.482656898776335E-13", "4.290246593946243E-13", "-4.320912727346676E-14"], ["-1.006445279139209E-15", "1.224751099460112E-15", "-4.353679023693213E-13", "1.912976059699331E-13", "-5.350239190082356E-13", "5.195960440181573E-14"], ["3.548075056079817E-13", "-4.353679023693213E-13", "2.956742569900297E-10", "-1.538115584349033E-10", "3.907000504368977E-10", "-2.733366266661029E-11"], ["-1.482656898776335E-13", "1.912976059699331E-13", "-1.538115584349033E-10", "1.108797146181938E-9", "-1.22442740653542E-9", "-2.76665104810912E-11"], ["4.290246593946243E-13", "-5.350239190082356E-13", "3.907000504368977E-10", "-1.22442740653542E-9", "1.531969473081541E-9", "5.480483624304099E-12"], ["-4.320912727346676E-14", "5.195960440181573E-14", "-2.733366266661029E-11", "-2.76665104810912E-11", "5.480483624304099E-12", "9.797094049417357E-12"]], "labels": ["e", "q", "tp", "node", "peri", "i"]}, "elements": [{"name": "e", "sigma": "2.8912E-8", "title": "eccentricity", "value": ".2832308541036554", "units": null, "label": "e"}, {"sigma": "5.3756E-9", "name": "a", "value": "1.320154401626566", "title": "semi-major axis", "units": "au", "label": "a"}, {"label": "q", "sigma": "3.4891E-8", "name": "q", "title": "perihelion distance", "value": ".9462459429051735", "units": "au"}, {"label": "i", "sigma": "3.1143E-6", "name": "i", "title": "inclination; angle with respect to x-y ecliptic plane", "value": "2.673582729660771", "units": "deg"}, {"label": "node", "sigma": "3.2954E-5", "name": "om", "units": "deg", "title": "longitude of the ascending node", "value": "34.56674365675774"}, {"name": "w", "sigma": "3.9176E-5", "value": "244.7635724481154", "title": "argument of perihelion", "units": "deg", "label": "peri"}, {"label": "M", "units": "deg", "title": "mean anomaly", "value": "94.95484560821828", "name": "ma", "sigma": "1.4538E-5"}, {"label": "tp", "units": "TDB", "title": "time of perihelion passage", "value": "2461054.366377486677", "sigma": "2.1655E-5", "name": "tp"}, {"label": "period", "sigma": "3.384E-6", "name": "per", "units": "d", "title": "sidereal orbital period", "value": "554.0328539088595"}, {"units": "deg/d", "title": "mean motion", "value": ".6497809605695719", "sigma": "3.9688E-9", "name": "n", "label": "n"}, {"label": "Q", "units": "au", "title": "aphelion distance", "value": "1.694062860347959", "name": "ad", "sigma": "6.8982E-9"}], "epoch": "2461200.5"}